[{"OBJECT_NAME":"ION SCV-004","OBJECT_ID":"2022-002K","EPOCH":"2026-03-09T16:32:03.244416","MEAN_MOTION":15.29369331,"ECCENTRICITY":0.00072157,"INCLINATION":97.2961,"RA_OF_ASC_NODE":128.2294,"ARG_OF_PERICENTER":1.6783,"MEAN_ANOMALY":358.448,"EPHEMERIS_TYPE":0,"CLASSIFICATION_TYPE":"U","NORAD_CAT_ID":50993,"ELEMENT_SET_NO":999,"REV_AT_EPOCH":23008,"BSTAR":0.00023198467,"MEAN_MOTION_DOT":6.538e-5,"MEAN_MOTION_DDOT":0},{"OBJECT_NAME":"STARLINK-32423","OBJECT_ID":"2024-171U","EPOCH":"2026-03-09T22:04:56.732448","MEAN_MOTION":15.3019008,"ECCENTRICITY":8.572e-5,"INCLINATION":53.1603,"RA_OF_ASC_NODE":321.384,"ARG_OF_PERICENTER":86.136,"MEAN_ANOMALY":273.9739,"EPHEMERIS_TYPE":0,"CLASSIFICATION_TYPE":"U","NORAD_CAT_ID":61218,"ELEMENT_SET_NO":999,"REV_AT_EPOCH":8331,"BSTAR":4.2247705e-5,"MEAN_MOTION_DOT":8.92e-6,"MEAN_MOTION_DDOT":0}]
